[{"OBJECT_NAME":"STARLINK-31564","OBJECT_ID":"2024-073R","EPOCH":"2026-03-09T01:35:05.423136","MEAN_MOTION":15.27593113,"ECCENTRICITY":7.568e-5,"INCLINATION":43.0026,"RA_OF_ASC_NODE":321.25,"ARG_OF_PERICENTER":267.9298,"MEAN_ANOMALY":92.1467,"EPHEMERIS_TYPE":0,"CLASSIFICATION_TYPE":"U","NORAD_CAT_ID":59526,"ELEMENT_SET_NO":999,"REV_AT_EPOCH":10608,"BSTAR":5.9569374e-5,"MEAN_MOTION_DOT":1.378e-5,"MEAN_MOTION_DDOT":0},{"OBJECT_NAME":"PEGASUS R\/B","OBJECT_ID":"2007-015B","EPOCH":"2026-03-09T10:58:33.801024","MEAN_MOTION":15.26741121,"ECCENTRICITY":0.00105976,"INCLINATION":97.9168,"RA_OF_ASC_NODE":31.3919,"ARG_OF_PERICENTER":317.6341,"MEAN_ANOMALY":42.4077,"EPHEMERIS_TYPE":0,"CLASSIFICATION_TYPE":"U","NORAD_CAT_ID":31305,"ELEMENT_SET_NO":999,"REV_AT_EPOCH":3383,"BSTAR":0.00044093522,"MEAN_MOTION_DOT":0.00011537,"MEAN_MOTION_DDOT":0}]
